{
  "norad_id": 64765,
  "name": "STARLINK-34566",
  "history": [
    {
      "epoch": "2026-05-05T18:38:15.116640Z",
      "apogee_km": 478.8856467206806,
      "perigee_km": 468.00670295567306,
      "latitude_deg": -2.7855543854616093e-05,
      "longitude_deg": -165.74089715677025,
      "height_km": 470.7267951608501,
      "semi_major_axis_km": 6851.583174838177,
      "eccentricity": 0.0007939,
      "inclination_deg": 53.1622,
      "raan_deg": 337.4688,
      "arg_perigee_deg": 48.4183,
      "mean_anomaly_deg": 311.7497,
      "mean_motion_rev_day": 15.30792623
    },
    {
      "epoch": "2026-05-06T20:00:01.999008Z",
      "apogee_km": 466.8588893357364,
      "perigee_km": 465.7555649263222,
      "latitude_deg": 51.36345636243684,
      "longitude_deg": -123.39923218718171,
      "height_km": 471.9173424379804,
      "semi_major_axis_km": 6844.444227131029,
      "eccentricity": 8.06e-05,
      "inclination_deg": 53.1603,
      "raan_deg": 332.5384,
      "arg_perigee_deg": 96.2769,
      "mean_anomaly_deg": 340.6224,
      "mean_motion_rev_day": 15.33188237
    },
    {
      "epoch": "2026-05-07T20:00:01.999008Z",
      "apogee_km": 464.06593236719436,
      "perigee_km": 461.52247414582325,
      "latitude_deg": -18.303512211219726,
      "longitude_deg": -3.548833845815872,
      "height_km": 468.4764454438511,
      "semi_major_axis_km": 6840.9312032565085,
      "eccentricity": 0.0001859,
      "inclination_deg": 53.1598,
      "raan_deg": 327.8659,
      "arg_perigee_deg": 81.3708,
      "mean_anomaly_deg": 121.4889,
      "mean_motion_rev_day": 15.34369396
    },
    {
      "epoch": "2026-05-08T20:00:01.999008Z",
      "apogee_km": 463.98229021103816,
      "perigee_km": 461.55240098748163,
      "latitude_deg": -24.043910065757466,
      "longitude_deg": 137.10916831818355,
      "height_km": 470.2042754526178,
      "semi_major_axis_km": 6840.90434559926,
      "eccentricity": 0.0001776,
      "inclination_deg": 53.1594,
      "raan_deg": 323.1919,
      "arg_perigee_deg": 84.2394,
      "mean_anomaly_deg": 245.4332,
      "mean_motion_rev_day": 15.34378432
    },
    {
      "epoch": "2026-05-09T20:00:04.000032Z",
      "apogee_km": 463.8578836533552,
      "perigee_km": 461.6209170704378,
      "latitude_deg": 52.795996638544025,
      "longitude_deg": -108.08655769204279,
      "height_km": 468.08957425088124,
      "semi_major_axis_km": 6840.876400361896,
      "eccentricity": 0.0001635,
      "inclination_deg": 53.1593,
      "raan_deg": 318.5173,
      "arg_perigee_deg": 87.8866,
      "mean_anomaly_deg": 8.7863,
      "mean_motion_rev_day": 15.34387834
    },
    {
      "epoch": "2026-05-10T19:01:50.674368Z",
      "apogee_km": 463.5491185903429,
      "perigee_km": 461.84848680979303,
      "latitude_deg": -2.7471396289916425e-05,
      "longitude_deg": 159.9792587421671,
      "height_km": 463.51883772620073,
      "semi_major_axis_km": 6840.835802700068,
      "eccentricity": 0.0001243,
      "inclination_deg": 53.1601,
      "raan_deg": 314.0315,
      "arg_perigee_deg": 84.6191,
      "mean_anomaly_deg": 275.4953,
      "mean_motion_rev_day": 15.34401493
    },
    {
      "epoch": "2026-05-11T18:28:46.987392Z",
      "apogee_km": 463.57537574265825,
      "perigee_km": 461.8213855510594,
      "latitude_deg": 4.8655034751989116e-05,
      "longitude_deg": 162.71336234132636,
      "height_km": 463.6273445069759,
      "semi_major_axis_km": 6840.8353806468585,
      "eccentricity": 0.0001282,
      "inclination_deg": 53.1609,
      "raan_deg": 309.4632,
      "arg_perigee_deg": 91.9065,
      "mean_anomaly_deg": 268.2085,
      "mean_motion_rev_day": 15.34401635
    },
    {
      "epoch": "2026-05-12T17:55:43.226976Z",
      "apogee_km": 463.6699611853437,
      "perigee_km": 461.7572593547129,
      "latitude_deg": 4.060765444256075e-05,
      "longitude_deg": 165.44841072192725,
      "height_km": 463.6695123748675,
      "semi_major_axis_km": 6840.8506102700285,
      "eccentricity": 0.0001398,
      "inclination_deg": 53.1608,
      "raan_deg": 304.8956,
      "arg_perigee_deg": 93.374,
      "mean_anomaly_deg": 266.7423,
      "mean_motion_rev_day": 15.34396511
    }
  ]
}